[
    {
        "Altitude(m)": 610399.5769309743,
        "Argument of Periapsis(deg)": 0.0,
        "Eccentricity": 0.0,
        "Inclination(deg)": 60.0,
        "Latitude(deg)": 52.111467621494974,
        "Longitude(deg)": 102.58430615788347,
        "Mean Anomaly(deg)": 65.45450000000001,
        "RAAN(deg)": 155.0,
        "Satellite Name": "Test1 686",
        "Satellite Number": 686,
        "Semi-Major Axis(m)": 6980739.136638005,
        "Time(s)": 0
    },
    {
        "Altitude(m)": 610481.7278554706,
        "Argument of Periapsis(deg)": 0.00010418945913296404,
        "Eccentricity": 0.0,
        "Inclination(deg)": 60.0,
        "Latitude(deg)": 52.47106984940585,
        "Longitude(deg)": 103.36644472905347,
        "Mean Anomaly(deg)": 66.07460614546181,
        "RAAN(deg)": 154.99957995086027,
        "Satellite Name": "Test1 686",
        "Satellite Number": 686,
        "Semi-Major Axis(m)": 6980739.136638005,
        "Time(s)": 10
    }
]